[{"OBJECT_NAME":"OBJECT C","OBJECT_ID":"2023-104C","EPOCH":"2026-03-09T22:39:44.230752","MEAN_MOTION":15.26846312,"ECCENTRICITY":0.00113074,"INCLINATION":97.273,"RA_OF_ASC_NODE":135.3333,"ARG_OF_PERICENTER":3.876,"MEAN_ANOMALY":356.2565,"EPHEMERIS_TYPE":0,"CLASSIFICATION_TYPE":"U","NORAD_CAT_ID":57426,"ELEMENT_SET_NO":999,"REV_AT_EPOCH":14663,"BSTAR":0.00062618506,"MEAN_MOTION_DOT":0.00016495,"MEAN_MOTION_DDOT":0},{"OBJECT_NAME":"STARLINK-34169","OBJECT_ID":"2025-101F","EPOCH":"2026-03-09T05:00:15.716736","MEAN_MOTION":15.27555344,"ECCENTRICITY":0.00019194,"INCLINATION":43.0053,"RA_OF_ASC_NODE":0.5107,"ARG_OF_PERICENTER":260.2441,"MEAN_ANOMALY":99.8194,"EPHEMERIS_TYPE":0,"CLASSIFICATION_TYPE":"U","NORAD_CAT_ID":63999,"ELEMENT_SET_NO":999,"REV_AT_EPOCH":4698,"BSTAR":0.0012345553,"MEAN_MOTION_DOT":0.00033841,"MEAN_MOTION_DDOT":0}]
